{"type": "FeatureCollection", "features": [ {"type": "Feature", "properties": {"norad_id": 35045, "name": "COSMOS 2251 DEB", "group": "cosmos-2251-debris", "lat": -1.029469234756185, "lon": -136.25672533480648, "alt_km": 924.5070567484981, "timestamp": "2025-12-17T23:38:07.249346+00:00", "meta": {"OBJECT_NAME": "COSMOS 2251 DEB", "OBJECT_ID": "1993-036AHJ", "EPOCH": "2025-12-15T10:44:56.343840", "MEAN_MOTION": 14.00391051, "ECCENTRICITY": 0.01837483, "INCLINATION": 73.7197, "RA_OF_ASC_NODE": 47.9208, "ARG_OF_PERICENTER": 289.5539, "MEAN_ANOMALY": 68.5833, "EPHEMERIS_TYPE": 0, "CLASSIFICATION_TYPE": "U", "NORAD_CAT_ID": 35045, "ELEMENT_SET_NO": 999, "REV_AT_EPOCH": 84681, "BSTAR": 0.00065789188, "MEAN_MOTION_DOT": 1.1e-05, "MEAN_MOTION_DDOT": 0}, "tle": {"line1": "1 35045U 93036AHJ 25349.44787435  .00001100  00000+0  65789-3 0  9992", "line2": "2 35045  73.7197  47.9208 0183748 289.5539  68.5833 14.00391051846819"}}, "geometry": {"type": "Point", "coordinates": [-136.25672533480648, -1.029469234756185]}}, {"type": "Feature", "properties": {"norad_id": 35060, "name": "COSMOS 2251 DEB", "group": "cosmos-2251-debris", "lat": 31.273917541744037, "lon": 44.600600963365764, "alt_km": 764.2599155614225, "timestamp": "2025-12-17T23:38:07.249355+00:00", "meta": {"OBJECT_NAME": "COSMOS 2251 DEB", "OBJECT_ID": "1993-036AHP", "EPOCH": "2025-12-17T09:37:48.798336", "MEAN_MOTION": 14.41611034, "ECCENTRICITY": 0.00186104, "INCLINATION": 74.0362, "RA_OF_ASC_NODE": 235.6937, "ARG_OF_PERICENTER": 321.6138, "MEAN_ANOMALY": 38.3692, "EPHEMERIS_TYPE": 0, "CLASSIFICATION_TYPE": "U", "NORAD_CAT_ID": 35060, "ELEMENT_SET_NO": 999, "REV_AT_EPOCH": 87309, "BSTAR": 0.00026105938, "MEAN_MOTION_DOT": 8.25e-06, "MEAN_MOTION_DDOT": 0}, "tle": {"line1": "1 35060U 93036AHP 25351.40125924  .00000825  00000+0  26106-3 0  9990", "line2": "2 35060  74.0362 235.6937 0018610 321.6138  38.3692 14.41611034873096"}}, "geometry": {"type": "Point", "coordinates": [44.600600963365764, 31.273917541744037]}}, {"type": "Feature", "properties": {"norad_id": 35061, "name": "COSMOS 2251 DEB", "group": "cosmos-2251-debris", "lat": 12.51162090618118, "lon": 111.95567409639793, "alt_km": 683.2929694204795, "timestamp": "2025-12-17T23:38:07.249365+00:00", "meta": {"OBJECT_NAME": "COSMOS 2251 DEB", "OBJECT_ID": "1993-036AHQ", "EPOCH": "2025-12-16T02:43:00.799680", "MEAN_MOTION": 14.67857584, "ECCENTRICITY": 0.00392707, "INCLINATION": 74.0455, "RA_OF_ASC_NODE": 299.2082, "ARG_OF_PERICENTER": 49.0905, "MEAN_ANOMALY": 311.3654, "EPHEMERIS_TYPE": 0, "CLASSIFICATION_TYPE": "U", "NORAD_CAT_ID": 35061, "ELEMENT_SET_NO": 999, "REV_AT_EPOCH": 88624, "BSTAR": 0.00056925781, "MEAN_MOTION_DOT": 3.26e-05, "MEAN_MOTION_DDOT": 0}, "tle": {"line1": "1 35061U 93036AHQ 25350.11320370  .00003260  00000+0  56926-3 0  9999", "line2": "2 35061  74.0455 299.2082 0039270  49.0905 311.3654 14.67857584886248"}}, "geometry": {"type": "Point", "coordinates": [111.95567409639793, 12.51162090618118]}}, {"type": "Feature", "properties": {"norad_id": 35062, "name": "COSMOS 2251 DEB", "group": "cosmos-2251-debris", "lat": 72.80194565045603, "lon": -163.41065850615644, "alt_km": 718.8735872140096, "timestamp": "2025-12-17T23:38:07.249375+00:00", "meta": {"OBJECT_NAME": "COSMOS 2251 DEB", "OBJECT_ID": "1993-036AHR", "EPOCH": "2025-12-10T15:42:45.436320", "MEAN_MOTION": 14.22906612, "ECCENTRICITY": 0.01275957, "INCLINATION": 74.0784, "RA_OF_ASC_NODE": 96.9836, "ARG_OF_PERICENTER": 97.3041, "MEAN_ANOMALY": 264.2628, "EPHEMERIS_TYPE": 0, "CLASSIFICATION_TYPE": "U", "NORAD_CAT_ID": 35062, "ELEMENT_SET_NO": 999, "REV_AT_EPOCH": 85469, "BSTAR": 0.0028656551, "MEAN_MOTION_DOT": 6.986e-05, "MEAN_MOTION_DDOT": 0}, "tle": {"line1": "1 35062U 93036AHR 25344.65469255  .00006986  00000+0  28657-2 0  9995", "line2": "2 35062  74.0784  96.9836 0127595  97.3041 264.2628 14.22906612854697"}}, "geometry": {"type": "Point", "coordinates": [-163.41065850615644, 72.80194565045603]}}, {"type": "Feature", "properties": {"norad_id": 35065, "name": "COSMOS 2251 DEB", "group": "cosmos-2251-debris", "lat": -31.239988937015326, "lon": 14.556987483032307, "alt_km": 746.7670330773635, "timestamp": "2025-12-17T23:38:07.249385+00:00", "meta": {"OBJECT_NAME": "COSMOS 2251 DEB", "OBJECT_ID": "1993-036AHU", "EPOCH": "2025-12-15T07:32:45.576096", "MEAN_MOTION": 14.45733893, "ECCENTRICITY": 0.00199052, "INCLINATION": 74.019, "RA_OF_ASC_NODE": 189.5298, "ARG_OF_PERICENTER": 314.3681, "MEAN_ANOMALY": 45.5846, "EPHEMERIS_TYPE": 0, "CLASSIFICATION_TYPE": "U", "NORAD_CAT_ID": 35065, "ELEMENT_SET_NO": 999, "REV_AT_EPOCH": 68388, "BSTAR": 0.00034144119, "MEAN_MOTION_DOT": 1.186e-05, "MEAN_MOTION_DDOT": 0}, "tle": {"line1": "1 35065U 93036AHU 25349.31441639  .00001186  00000+0  34144-3 0  9998", "line2": "2 35065  74.0190 189.5298 0019905 314.3681  45.5846 14.45733893683886"}}, "geometry": {"type": "Point", "coordinates": [14.556987483032307, -31.239988937015326]}}, {"type": "Feature", "properties": {"norad_id": 35071, "name": "COSMOS 2251 DEB", "group": "cosmos-2251-debris", "lat": 72.35320669133219, "lon": -132.37509894787212, "alt_km": 505.7195838411635, "timestamp": "2025-12-17T23:38:07.249395+00:00", "meta": {"OBJECT_NAME": "COSMOS 2251 DEB", "OBJECT_ID": "1993-036AJA", "EPOCH": "2025-12-15T18:34:31.974816", "MEAN_MOTION": 15.0351885, "ECCENTRICITY": 0.00682233, "INCLINATION": 73.9308, "RA_OF_ASC_NODE": 167.1964, "ARG_OF_PERICENTER": 62.71, "MEAN_ANOMALY": 298.1014, "EPHEMERIS_TYPE": 0, "CLASSIFICATION_TYPE": "U", "NORAD_CAT_ID": 35071, "ELEMENT_SET_NO": 999, "REV_AT_EPOCH": 67582, "BSTAR": 0.00048026378, "MEAN_MOTION_DOT": 6.858e-05, "MEAN_MOTION_DDOT": 0}, "tle": {"line1": "1 35071U 93036AJA 25349.77398119  .00006858  00000+0  48026-3 0  9994", "line2": "2 35071  73.9308 167.1964 0068223  62.7100 298.1014 15.03518850675828"}}, "geometry": {"type": "Point", "coordinates": [-132.37509894787212, 72.35320669133219]}}, {"type": "Feature", "properties": {"norad_id": 35073, "name": "COSMOS 2251 DEB", "group": "cosmos-2251-debris", "lat": 38.81187393910891, "lon": 126.53746072585494, "alt_km": 559.1553009651143, "timestamp": "2025-12-17T23:38:07.249405+00:00", "meta": {"OBJECT_NAME": "COSMOS 2251 DEB", "OBJECT_ID": "1993-036AJC", "EPOCH": "2025-12-15T05:25:47.046144", "MEAN_MOTION": 15.00831653, "ECCENTRICITY": 0.00109074, "INCLINATION": 73.9997, "RA_OF_ASC_NODE": 325.5063, "ARG_OF_PERICENTER": 67.0121, "MEAN_ANOMALY": 293.2216, "EPHEMERIS_TYPE": 0, "CLASSIFICATION_TYPE": "U", "NORAD_CAT_ID": 35073, "ELEMENT_SET_NO": 999, "REV_AT_EPOCH": 67516, "BSTAR": 0.001951072, "MEAN_MOTION_DOT": 0.00024882, "MEAN_MOTION_DDOT": 0}, "tle": {"line1": "1 35073U 93036AJC 25349.22623896  .00024882  00000+0  19511-2 0  9992", "line2": "2 35073  73.9997 325.5063 0010907  67.0121 293.2216 15.00831653675164"}}, "geometry": {"type": "Point", "coordinates": [126.53746072585494, 38.81187393910891]}}, {"type": "Feature", "properties": {"norad_id": 35284, "name": "COSMOS 2251 DEB", "group": "cosmos-2251-debris", "lat": 49.889289190746254, "lon": 54.920271111222824, "alt_km": 770.2613858075665, "timestamp": "2025-12-17T23:38:07.249415+00:00", "meta": {"OBJECT_NAME": "COSMOS 2251 DEB", "OBJECT_ID": "1993-036AJN", "EPOCH": "2025-12-16T00:22:37.828704", "MEAN_MOTION": 14.38321694, "ECCENTRICITY": 0.00169136, "INCLINATION": 74.0489, "RA_OF_ASC_NODE": 258.3918, "ARG_OF_PERICENTER": 334.2537, "MEAN_ANOMALY": 41.1453, "EPHEMERIS_TYPE": 0, "CLASSIFICATION_TYPE": "U", "NORAD_CAT_ID": 35284, "ELEMENT_SET_NO": 999, "REV_AT_EPOCH": 65573, "BSTAR": 0.00015700211, "MEAN_MOTION_DOT": 4.52e-06, "MEAN_MOTION_DDOT": 0}, "tle": {"line1": "1 35284U 93036AJN 25350.01571561  .00000452  00000+0  15700-3 0  9990", "line2": "2 35284  74.0489 258.3918 0016913 334.2537  41.1453 14.38321694655734"}}, "geometry": {"type": "Point", "coordinates": [54.920271111222824, 49.889289190746254]}}, {"type": "Feature", "properties": {"norad_id": 35287, "name": "COSMOS 2251 DEB", "group": "cosmos-2251-debris", "lat": -73.53877289784403, "lon": 162.22477383241502, "alt_km": 778.7471555448019, "timestamp": "2025-12-17T23:38:07.249425+00:00", "meta": {"OBJECT_NAME": "COSMOS 2251 DEB", "OBJECT_ID": "1993-036AJR", "EPOCH": "2025-12-17T13:11:38.063040", "MEAN_MOTION": 14.36380646, "ECCENTRICITY": 0.00177903, "INCLINATION": 74.0304, "RA_OF_ASC_NODE": 267.2972, "ARG_OF_PERICENTER": 2.8844, "MEAN_ANOMALY": 174.5253, "EPHEMERIS_TYPE": 0, "CLASSIFICATION_TYPE": "U", "NORAD_CAT_ID": 35287, "ELEMENT_SET_NO": 999, "REV_AT_EPOCH": 86961, "BSTAR": 0.00011734136, "MEAN_MOTION_DOT": 3.18e-06, "MEAN_MOTION_DDOT": 0}, "tle": {"line1": "1 35287U 93036AJR 25351.54974610  .00000318  00000+0  11734-3 0  9998", "line2": "2 35287  74.0304 267.2972 0017790   2.8844 174.5253 14.36380646869618"}}, "geometry": {"type": "Point", "coordinates": [162.22477383241502, -73.53877289784403]}}, {"type": "Feature", "properties": {"norad_id": 35288, "name": "COSMOS 2251 DEB", "group": "cosmos-2251-debris", "lat": -61.314774661025496, "lon": -143.23117570906282, "alt_km": 654.8072327399041, "timestamp": "2025-12-17T23:38:07.249435+00:00", "meta": {"OBJECT_NAME": "COSMOS 2251 DEB", "OBJECT_ID": "1993-036AJS", "EPOCH": "2025-12-15T08:15:30.303072", "MEAN_MOTION": 14.65486547, "ECCENTRICITY": 0.00393272, "INCLINATION": 73.9514, "RA_OF_ASC_NODE": 10.134, "ARG_OF_PERICENTER": 243.2869, "MEAN_ANOMALY": 116.4271, "EPHEMERIS_TYPE": 0, "CLASSIFICATION_TYPE": "U", "NORAD_CAT_ID": 35288, "ELEMENT_SET_NO": 999, "REV_AT_EPOCH": 87916, "BSTAR": 0.00067125427, "MEAN_MOTION_DOT": 3.647e-05, "MEAN_MOTION_DDOT": 0}, "tle": {"line1": "1 35288U 93036AJS 25349.34410073  .00003647  00000+0  67125-3 0  9995", "line2": "2 35288  73.9514  10.1340 0039327 243.2869 116.4271 14.65486547879167"}}, "geometry": {"type": "Point", "coordinates": [-143.23117570906282, -61.314774661025496]}}]}